{"dragon": {"capsule": null, "mass_returned_kg": null, "mass_returned_lbs": null, "flight_time_sec": null, "manifest": null, "water_landing": null, "land_landing": null}, "name": "Iridium NEXT 3", "type": "Satellite", "reused": false, "launch": "5eb87d0affd86e000604b359", "customers": ["Iridium Communications"], "norad_ids": [42955, 42956, 42957, 42958, 42959, 42960, 42961, 42962, 42963, 42964], "nationalities": ["United States"], "manufacturers": ["Thales Alenia Space"], "mass_kg": 9600, "mass_lbs": 21164.4, "orbit": "PO", "reference_system": "geocentric", "regime": "low-earth", "longitude": null, "semi_major_axis_km": 7155.799, "eccentricity": 0.000181, "periapsis_km": 776.369, "apoapsis_km": 778.959, "inclination_deg": 86.4001, "period_min": 100.403, "lifespan_years": 15, "epoch": "2022-01-29T09:05:43.000Z", "mean_motion": 14.34219343, "raan": 333.8028, "arg_of_pericenter": 90.5783, "mean_anomaly": 269.562, "id": "5eb0e4c5b6c3bb0006eeb215"}